FENGYUN 1C DEB          
1 29897U 99025GT  17345.77583222  .00000958  00000-0  11870-2 0  9997
2 29897  98.6251 188.7164 0318760  98.6689  30.0137 13.47522153534889
